{
  "type": "FeatureCollection",
  "features": [
    {
      "type": "Feature",
      "properties": {
        "norad_id": 34571,
        "name": "COSMOS 2251 DEB",
        "group": "cosmos-2251-debris",
        "lat": -23.511984120534933,
        "lon": 158.65144368183292,
        "alt_km": 767.9968837804854,
        "timestamp": "2025-12-21T14:40:48.313381+00:00",
        "meta_object_name": "COSMOS 2251 DEB",
        "meta_object_id": "1993-036VH",
        "meta_epoch": "2025-12-20T22:13:24.677184",
        "meta_mean_motion": 14.48931926,
        "meta_eccentricity": 0.0065366,
        "meta_inclination": 74.037,
        "meta_ra_of_asc_node": 167.0899,
        "meta_arg_of_pericenter": 200.1741,
        "meta_mean_anomaly": 159.6835,
        "meta_ephemeris_type": 0,
        "meta_classification_type": "U",
        "meta_norad_cat_id": 34571,
        "meta_element_set_no": 999,
        "meta_rev_at_epoch": 87412,
        "meta_bstar": 0.0016387,
        "meta_mean_motion_dot": 6.353e-05,
        "meta_mean_motion_ddot": 0,
        "tle_line1": "1 34571U 93036VH  25354.92598006  .00006353  00000+0  16387-2 0  9992",
        "tle_line2": "2 34571  74.0370 167.0899 0065366 200.1741 159.6835 14.48931926874120"
      },
      "geometry": {
        "type": "Point",
        "coordinates": [
          158.65144368183292,
          -23.511984120534933
        ]
      }
    },
    {
      "type": "Feature",
      "properties": {
        "norad_id": 34572,
        "name": "COSMOS 2251 DEB",
        "group": "cosmos-2251-debris",
        "lat": -53.960614754240964,
        "lon": -57.974499251356626,
        "alt_km": 713.7501712005924,
        "timestamp": "2025-12-21T14:40:48.313391+00:00",
        "meta_object_name": "COSMOS 2251 DEB",
        "meta_object_id": "1993-036VJ",
        "meta_epoch": "2025-12-19T08:52:33.083040",
        "meta_mean_motion": 14.50137544,
        "meta_eccentricity": 0.0061983,
        "meta_inclination": 74.0111,
        "meta_ra_of_asc_node": 103.0332,
        "meta_arg_of_pericenter": 175.7717,
        "meta_mean_anomaly": 241.8877,
        "meta_ephemeris_type": 0,
        "meta_classification_type": "U",
        "meta_norad_cat_id": 34572,
        "meta_element_set_no": 999,
        "meta_rev_at_epoch": 87474,
        "meta_bstar": 0.0016719,
        "meta_mean_motion_dot": 6.633e-05,
        "meta_mean_motion_ddot": 0,
        "tle_line1": "1 34572U 93036VJ  25353.36982735  .00006633  00000+0  16719-2 0  9996",
        "tle_line2": "2 34572  74.0111 103.0332 0061983 175.7717 241.8877 14.50137544874742"
      },
      "geometry": {
        "type": "Point",
        "coordinates": [
          -57.974499251356626,
          -53.960614754240964
        ]
      }
    },
    {
      "type": "Feature",
      "properties": {
        "norad_id": 34574,
        "name": "COSMOS 2251 DEB",
        "group": "cosmos-2251-debris",
        "lat": 56.11860270558202,
        "lon": 51.12239825072987,
        "alt_km": 607.6452929029465,
        "timestamp": "2025-12-21T14:40:48.313401+00:00",
        "meta_object_name": "COSMOS 2251 DEB",
        "meta_object_id": "1993-036VL",
        "meta_epoch": "2025-12-21T01:28:19.433856",
        "meta_mean_motion": 14.70684173,
        "meta_eccentricity": 0.00671343,
        "meta_inclination": 74.0681,
        "meta_ra_of_asc_node": 27.0127,
        "meta_arg_of_pericenter": 45.3067,
        "meta_mean_anomaly": 341.7255,
        "meta_ephemeris_type": 0,
        "meta_classification_type": "U",
        "meta_norad_cat_id": 34574,
        "meta_element_set_no": 999,
        "meta_rev_at_epoch": 88901,
        "meta_bstar": 0.00057735458,
        "meta_mean_motion_dot": 3.61e-05,
        "meta_mean_motion_ddot": 0,
        "tle_line1": "1 34574U 93036VL  25355.06133604  .00003610  00000+0  57735-3 0  9996",
        "tle_line2": "2 34574  74.0681  27.0127 0067134  45.3067 341.7255 14.70684173889010"
      },
      "geometry": {
        "type": "Point",
        "coordinates": [
          51.12239825072987,
          56.11860270558202
        ]
      }
    },
    {
      "type": "Feature",
      "properties": {
        "norad_id": 34576,
        "name": "COSMOS 2251 DEB",
        "group": "cosmos-2251-debris",
        "lat": -73.06892742510387,
        "lon": 11.516438567322165,
        "alt_km": 708.9683664145878,
        "timestamp": "2025-12-21T14:40:48.313411+00:00",
        "meta_object_name": "COSMOS 2251 DEB",
        "meta_object_id": "1993-036VN",
        "meta_epoch": "2025-12-19T15:21:26.249760",
        "meta_mean_motion": 14.55469677,
        "meta_eccentricity": 0.0008223,
        "meta_inclination": 74.0343,
        "meta_ra_of_asc_node": 125.1243,
        "meta_arg_of_pericenter": 262.3221,
        "meta_mean_anomaly": 114.6335,
        "meta_ephemeris_type": 0,
        "meta_classification_type": "U",
        "meta_norad_cat_id": 34576,
        "meta_element_set_no": 999,
        "meta_rev_at_epoch": 88567,
        "meta_bstar": 0.00058339,
        "meta_mean_motion_dot": 2.511e-05,
        "meta_mean_motion_ddot": 0,
        "tle_line1": "1 34576U 93036VN  25353.63988715  .00002511  00000+0  58339-3 0  9990",
        "tle_line2": "2 34576  74.0343 125.1243 0008223 262.3221 114.6335 14.55469677885670"
      },
      "geometry": {
        "type": "Point",
        "coordinates": [
          11.516438567322165,
          -73.06892742510387
        ]
      }
    },
    {
      "type": "Feature",
      "properties": {
        "norad_id": 34579,
        "name": "COSMOS 2251 DEB",
        "group": "cosmos-2251-debris",
        "lat": 20.326089020913713,
        "lon": 21.295485889203917,
        "alt_km": 749.1196533109724,
        "timestamp": "2025-12-21T14:40:48.313421+00:00",
        "meta_object_name": "COSMOS 2251 DEB",
        "meta_object_id": "1993-036VR",
        "meta_epoch": "2025-12-21T01:21:37.646208",
        "meta_mean_motion": 14.45328847,
        "meta_eccentricity": 0.00275187,
        "meta_inclination": 74.0516,
        "meta_ra_of_asc_node": 208.409,
        "meta_arg_of_pericenter": 275.8213,
        "meta_mean_anomaly": 236.6643,
        "meta_ephemeris_type": 0,
        "meta_classification_type": "U",
        "meta_norad_cat_id": 34579,
        "meta_element_set_no": 999,
        "meta_rev_at_epoch": 88294,
        "meta_bstar": 0.00026156545,
        "meta_mean_motion_dot": 8.96e-06,
        "meta_mean_motion_ddot": 0,
        "tle_line1": "1 34579U 93036VR  25355.05668572  .00000896  00000+0  26157-3 0  9994",
        "tle_line2": "2 34579  74.0516 208.4090 0027518 275.8213 236.6643 14.45328847882944"
      },
      "geometry": {
        "type": "Point",
        "coordinates": [
          21.295485889203917,
          20.326089020913713
        ]
      }
    },
    {
      "type": "Feature",
      "properties": {
        "norad_id": 34582,
        "name": "COSMOS 2251 DEB",
        "group": "cosmos-2251-debris",
        "lat": 32.95515916199301,
        "lon": -93.41564484874243,
        "alt_km": 715.3287259678891,
        "timestamp": "2025-12-21T14:40:48.313431+00:00",
        "meta_object_name": "COSMOS 2251 DEB",
        "meta_object_id": "1993-036VU",
        "meta_epoch": "2025-12-21T01:12:53.475552",
        "meta_mean_motion": 14.43364188,
        "meta_eccentricity": 0.00483118,
        "meta_inclination": 74.02,
        "meta_ra_of_asc_node": 256.9212,
        "meta_arg_of_pericenter": 5.227,
        "meta_mean_anomaly": 354.938,
        "meta_ephemeris_type": 0,
        "meta_classification_type": "U",
        "meta_norad_cat_id": 34582,
        "meta_element_set_no": 999,
        "meta_rev_at_epoch": 88067,
        "meta_bstar": 0.0005121885,
        "meta_mean_motion_dot": 1.726e-05,
        "meta_mean_motion_ddot": 0,
        "tle_line1": "1 34582U 93036VU  25355.05061893  .00001726  00000+0  51219-3 0  9991",
        "tle_line2": "2 34582  74.0200 256.9212 0048311   5.2270 354.9380 14.43364188880670"
      },
      "geometry": {
        "type": "Point",
        "coordinates": [
          -93.41564484874243,
          32.95515916199301
        ]
      }
    },
    {
      "type": "Feature",
      "properties": {
        "norad_id": 34588,
        "name": "COSMOS 2251 DEB",
        "group": "cosmos-2251-debris",
        "lat": 45.01344181809494,
        "lon": -91.54990816871062,
        "alt_km": 750.8127415115941,
        "timestamp": "2025-12-21T14:40:48.313441+00:00",
        "meta_object_name": "COSMOS 2251 DEB",
        "meta_object_id": "1993-036WA",
        "meta_epoch": "2025-12-21T03:30:26.642880",
        "meta_mean_motion": 14.42044077,
        "meta_eccentricity": 0.00192864,
        "meta_inclination": 74.0429,
        "meta_ra_of_asc_node": 252.6785,
        "meta_arg_of_pericenter": 304.5185,
        "meta_mean_anomaly": 206.9531,
        "meta_ephemeris_type": 0,
        "meta_classification_type": "U",
        "meta_norad_cat_id": 34588,
        "meta_element_set_no": 999,
        "meta_rev_at_epoch": 88071,
        "meta_bstar": 0.00029360727,
        "meta_mean_motion_dot": 9.4e-06,
        "meta_mean_motion_ddot": 0,
        "tle_line1": "1 34588U 93036WA  25355.14614170  .00000940  00000+0  29361-3 0  9999",
        "tle_line2": "2 34588  74.0429 252.6785 0019286 304.5185 206.9531 14.42044077880716"
      },
      "geometry": {
        "type": "Point",
        "coordinates": [
          -91.54990816871062,
          45.01344181809494
        ]
      }
    }
  ]
}